LANDSAT 9               
1 49260U 21088A   24119.93490062  .00000922  00000+0  21469-3 0  9997
2 49260  98.1891 190.3820 0001345  90.6011 269.5342 14.57115888137529
